*******************************************************************************
Ephemeris / WWW_USER Mon Mar 24 07:00:59 2025 Pasadena, USA      / Horizons    
*******************************************************************************
Target body name: Triton (801)                    {source: nep097_merged}
Center body name: Earth (399)                     {source: nep097_merged}
Center-site name: Mauna Kea
*******************************************************************************
Start time      : A.D. 2019-Jan-05 04:06:00.0000 UT      
Stop  time      : A.D. 2019-Jan-05 16:47:00.0000 UT      
Step-size       : 1 minutes
*******************************************************************************
Target pole/equ : IAU_TRITON                      {East-longitude positive}
Target radii    : 1352.6, 1352.6, 1352.6 km       {Equator_a, b, pole_c}       
Center geodetic : 204.5278, 19.8260847, 4.21024   {E-lon(deg),Lat(deg),Alt(km)}
Center cylindric: 204.5278, 6006.35451, 2151.0229 {E-lon(deg),Dxy(km),Dz(km)}
Center pole/equ : ITRF93                          {East-longitude positive}
Center radii    : 6378.137, 6378.137, 6356.752 km {Equator_a, b, pole_c}       
Target primary  : Neptune
Vis. interferer : MOON (R_eq= 1737.400) km        {source: DE441}
Rel. light bend : Sun                             {source: nep097_merged}
Rel. lght bnd GM: 1.3271E+11 km^3/s^2                                          
Atmos refraction: NO (AIRLESS)
RA format       : HMS
Time format     : CAL 
Calendar mode   : Mixed Julian/Gregorian
RTS-only print  : NO       
EOP file        : eop.250321.p250617                                           
EOP coverage    : DATA-BASED 1962-JAN-20 TO 2025-MAR-21. PREDICTS-> 2025-JUN-16
Units conversion: 1 au= 149597870.700 km, c= 299792.458 km/s, 1 day= 86400.0 s 
Table cut-offs 1: Elevation (-90.0deg=NO ),Airmass (>38.000=NO), Daylight (YES)
Table cut-offs 2: Solar elongation (  0.0,180.0=NO ),Local Hour Angle( 0.0=NO )
Table cut-offs 3: RA/DEC angular rate (     0.0=NO )                           
*******************************************************************************
 Date__(UT)__HR:MN     R.A._________(ICRF)_________DEC
******************************************************
$$SOE
 2019-Jan-05 06:26     23 02 13.485838 -07 13 29.50913
 2019-Jan-05 06:27     23 02 13.488667 -07 13 29.49142
 2019-Jan-05 06:28     23 02 13.491496 -07 13 29.47371
 2019-Jan-05 06:29     23 02 13.494325 -07 13 29.45599
 2019-Jan-05 06:30     23 02 13.497155 -07 13 29.43826
 2019-Jan-05 06:31     23 02 13.499985 -07 13 29.42053
 2019-Jan-05 06:32     23 02 13.502816 -07 13 29.40278
 2019-Jan-05 06:33     23 02 13.505647 -07 13 29.38503
 2019-Jan-05 06:34     23 02 13.508478 -07 13 29.36727
 2019-Jan-05 06:35     23 02 13.511309 -07 13 29.34951
 2019-Jan-05 06:36     23 02 13.514141 -07 13 29.33173
 2019-Jan-05 06:37     23 02 13.516973 -07 13 29.31395
 2019-Jan-05 06:38     23 02 13.519806 -07 13 29.29616
 2019-Jan-05 06:39     23 02 13.522638 -07 13 29.27836
 2019-Jan-05 06:40     23 02 13.525471 -07 13 29.26056
 2019-Jan-05 06:41     23 02 13.528305 -07 13 29.24274
 2019-Jan-05 06:42     23 02 13.531139 -07 13 29.22492
 2019-Jan-05 06:43     23 02 13.533973 -07 13 29.20710
 2019-Jan-05 06:44     23 02 13.536807 -07 13 29.18926
 2019-Jan-05 06:45     23 02 13.539642 -07 13 29.17142
 2019-Jan-05 06:46     23 02 13.542477 -07 13 29.15356
 2019-Jan-05 06:47     23 02 13.545313 -07 13 29.13570
 2019-Jan-05 06:48     23 02 13.548149 -07 13 29.11784
 2019-Jan-05 06:49     23 02 13.550985 -07 13 29.09996
 2019-Jan-05 06:50     23 02 13.553822 -07 13 29.08208
 2019-Jan-05 06:51     23 02 13.556659 -07 13 29.06419
 2019-Jan-05 06:52     23 02 13.559496 -07 13 29.04629
 2019-Jan-05 06:53     23 02 13.562333 -07 13 29.02839
 2019-Jan-05 06:54     23 02 13.565171 -07 13 29.01047
 2019-Jan-05 06:55     23 02 13.568010 -07 13 28.99255
 2019-Jan-05 06:56     23 02 13.570848 -07 13 28.97462
 2019-Jan-05 06:57     23 02 13.573687 -07 13 28.95668
 2019-Jan-05 06:58     23 02 13.576527 -07 13 28.93874
 2019-Jan-05 06:59     23 02 13.579367 -07 13 28.92079
 2019-Jan-05 07:00     23 02 13.582207 -07 13 28.90283
 2019-Jan-05 07:01     23 02 13.585047 -07 13 28.88486
 2019-Jan-05 07:02     23 02 13.587888 -07 13 28.86689
 2019-Jan-05 07:03     23 02 13.590729 -07 13 28.84890
 2019-Jan-05 07:04     23 02 13.593571 -07 13 28.83091
 2019-Jan-05 07:05     23 02 13.596412 -07 13 28.81291
 2019-Jan-05 07:06     23 02 13.599255 -07 13 28.79491
 2019-Jan-05 07:07     23 02 13.602097 -07 13 28.77689
 2019-Jan-05 07:08     23 02 13.604940 -07 13 28.75887
 2019-Jan-05 07:09     23 02 13.607784 -07 13 28.74084
 2019-Jan-05 07:10     23 02 13.610627 -07 13 28.72280
 2019-Jan-05 07:11     23 02 13.613471 -07 13 28.70476
 2019-Jan-05 07:12     23 02 13.616316 -07 13 28.68671
 2019-Jan-05 07:13     23 02 13.619161 -07 13 28.66865
 2019-Jan-05 07:14     23 02 13.622006 -07 13 28.65058
 2019-Jan-05 07:15     23 02 13.624851 -07 13 28.63250
 2019-Jan-05 07:16     23 02 13.627697 -07 13 28.61442
 2019-Jan-05 07:17     23 02 13.630543 -07 13 28.59633
 2019-Jan-05 07:18     23 02 13.633390 -07 13 28.57823
 2019-Jan-05 07:19     23 02 13.636237 -07 13 28.56012
 2019-Jan-05 07:20     23 02 13.639084 -07 13 28.54201
 2019-Jan-05 07:21     23 02 13.641932 -07 13 28.52389
 2019-Jan-05 07:22     23 02 13.644780 -07 13 28.50576
 2019-Jan-05 07:23     23 02 13.647629 -07 13 28.48762
 2019-Jan-05 07:24     23 02 13.650478 -07 13 28.46947
 2019-Jan-05 07:25     23 02 13.653327 -07 13 28.45132
 2019-Jan-05 07:26     23 02 13.656177 -07 13 28.43316
 2019-Jan-05 07:27     23 02 13.659027 -07 13 28.41499
 2019-Jan-05 07:28     23 02 13.661877 -07 13 28.39681
 2019-Jan-05 07:29     23 02 13.664728 -07 13 28.37863
 2019-Jan-05 07:30     23 02 13.667579 -07 13 28.36044
 2019-Jan-05 07:31     23 02 13.670431 -07 13 28.34224
 2019-Jan-05 07:32     23 02 13.673283 -07 13 28.32403
 2019-Jan-05 07:33     23 02 13.676135 -07 13 28.30582
 2019-Jan-05 07:34     23 02 13.678988 -07 13 28.28759
 2019-Jan-05 07:35     23 02 13.681841 -07 13 28.26936
 2019-Jan-05 07:36     23 02 13.684694 -07 13 28.25112
 2019-Jan-05 07:37     23 02 13.687548 -07 13 28.23288
 2019-Jan-05 07:38     23 02 13.690402 -07 13 28.21463
 2019-Jan-05 07:39     23 02 13.693257 -07 13 28.19636
 2019-Jan-05 07:40     23 02 13.696112 -07 13 28.17809
 2019-Jan-05 07:41     23 02 13.698967 -07 13 28.15982
 2019-Jan-05 07:42     23 02 13.701823 -07 13 28.14153
 2019-Jan-05 07:43     23 02 13.704679 -07 13 28.12324
 2019-Jan-05 07:44     23 02 13.707536 -07 13 28.10494
 2019-Jan-05 07:45     23 02 13.710393 -07 13 28.08663
 2019-Jan-05 07:46     23 02 13.713250 -07 13 28.06832
 2019-Jan-05 07:47     23 02 13.716108 -07 13 28.05000
 2019-Jan-05 07:48     23 02 13.718966 -07 13 28.03166
 2019-Jan-05 07:49     23 02 13.721825 -07 13 28.01333
 2019-Jan-05 07:50     23 02 13.724683 -07 13 27.99498
 2019-Jan-05 07:51     23 02 13.727543 -07 13 27.97663
 2019-Jan-05 07:52     23 02 13.730402 -07 13 27.95826
 2019-Jan-05 07:53     23 02 13.733263 -07 13 27.93989
 2019-Jan-05 07:54     23 02 13.736123 -07 13 27.92152
 2019-Jan-05 07:55     23 02 13.738984 -07 13 27.90313
 2019-Jan-05 07:56     23 02 13.741845 -07 13 27.88474
 2019-Jan-05 07:57     23 02 13.744707 -07 13 27.86634
 2019-Jan-05 07:58     23 02 13.747569 -07 13 27.84793
 2019-Jan-05 07:59     23 02 13.750432 -07 13 27.82952
 2019-Jan-05 08:00     23 02 13.753294 -07 13 27.81109
 2019-Jan-05 08:01     23 02 13.756158 -07 13 27.79266
 2019-Jan-05 08:02     23 02 13.759021 -07 13 27.77422
 2019-Jan-05 08:03     23 02 13.761886 -07 13 27.75578
 2019-Jan-05 08:04     23 02 13.764750 -07 13 27.73732
 2019-Jan-05 08:05     23 02 13.767615 -07 13 27.71886
 2019-Jan-05 08:06     23 02 13.770480 -07 13 27.70039
 2019-Jan-05 08:07     23 02 13.773346 -07 13 27.68191
 2019-Jan-05 08:08     23 02 13.776212 -07 13 27.66343
 2019-Jan-05 08:09     23 02 13.779079 -07 13 27.64494
 2019-Jan-05 08:10     23 02 13.781945 -07 13 27.62643
 2019-Jan-05 08:11     23 02 13.784813 -07 13 27.60793
 2019-Jan-05 08:12     23 02 13.787680 -07 13 27.58941
 2019-Jan-05 08:13     23 02 13.790549 -07 13 27.57089
 2019-Jan-05 08:14     23 02 13.793417 -07 13 27.55236
 2019-Jan-05 08:15     23 02 13.796286 -07 13 27.53382
 2019-Jan-05 08:16     23 02 13.799155 -07 13 27.51527
 2019-Jan-05 08:17     23 02 13.802025 -07 13 27.49672
 2019-Jan-05 08:18     23 02 13.804895 -07 13 27.47815
 2019-Jan-05 08:19     23 02 13.807766 -07 13 27.45958
 2019-Jan-05 08:20     23 02 13.810637 -07 13 27.44101
 2019-Jan-05 08:21     23 02 13.813508 -07 13 27.42242
 2019-Jan-05 08:22     23 02 13.816380 -07 13 27.40383
 2019-Jan-05 08:23     23 02 13.819252 -07 13 27.38523
 2019-Jan-05 08:24     23 02 13.822125 -07 13 27.36662
 2019-Jan-05 08:25     23 02 13.824998 -07 13 27.34800
 2019-Jan-05 08:26     23 02 13.827871 -07 13 27.32938
 2019-Jan-05 08:27     23 02 13.830745 -07 13 27.31075
 2019-Jan-05 08:28  s  23 02 13.833619 -07 13 27.29211
 2019-Jan-05 08:29     23 02 13.836494 -07 13 27.27346
 2019-Jan-05 08:30     23 02 13.839369 -07 13 27.25481
 2019-Jan-05 08:31     23 02 13.842245 -07 13 27.23614
 2019-Jan-05 08:32     23 02 13.845121 -07 13 27.21747
 2019-Jan-05 08:33     23 02 13.847997 -07 13 27.19880
 2019-Jan-05 08:34     23 02 13.850874 -07 13 27.18011
 2019-Jan-05 08:35     23 02 13.853751 -07 13 27.16142
 2019-Jan-05 08:36     23 02 13.856628 -07 13 27.14272
 2019-Jan-05 08:37     23 02 13.859506 -07 13 27.12401
 2019-Jan-05 08:38     23 02 13.862385 -07 13 27.10529
 2019-Jan-05 08:39     23 02 13.865264 -07 13 27.08657
 2019-Jan-05 08:40     23 02 13.868143 -07 13 27.06784
 2019-Jan-05 08:41     23 02 13.871022 -07 13 27.04910
 2019-Jan-05 08:42     23 02 13.873902 -07 13 27.03035
 2019-Jan-05 08:43     23 02 13.876783 -07 13 27.01159
 2019-Jan-05 08:44     23 02 13.879664 -07 13 26.99283
 2019-Jan-05 08:45     23 02 13.882545 -07 13 26.97406
